satname,norad_id,inclination_deg,eccentricity,mean_motion_rev_per_day,perigee_km,apogee_km,l1,l2
STARLINK-1008,44714,53.1523,0.0001936,15.50879183,412.84286339811933,415.47283996469105,1 44714U 19074B   26174.88577602  .00061014  00000+0  10374-2 0  9992,2 44714  53.1523  36.6365 0001936 172.4425 187.6614 15.50879183365255
STARLINK-1012,44718,53.1564,0.0001985,15.51227047,411.7942927951635,414.49043070177777,1 44718U 19074F   26175.20287399  .00054696  00000+0  92007-3 0  9996,2 44718  53.1564  35.3756 0001985 186.2108 173.8878 15.51227047365299
STARLINK-1017,44723,53.0473,0.0004079,15.32630214,465.1759518616591,470.76100471084465,1 44723U 19074L   26174.92290647  .00038771  00000+0  12185-2 0  9994,2 44723  53.0473  37.9747 0004079  88.3246 271.8222 15.32630214365210
STARLINK-1020,44725,53.1558,0.0003404,15.56728928,394.82519965652045,399.43780245203834,1 44725U 19074N   26174.97628213  .00080158  00000+0  10973-2 0  9994,2 44725  53.1558  59.8955 0003404 143.7524 216.3720 15.56728928364916
STARLINK-1036,44741,53.0423,0.000112,15.74412837,345.54940395217545,347.05567840939875,1 44741U 19074AE  26175.33335648 -.00011969  00000+0 -76767-4 0  9991,2 44741  53.0423  25.2362 0001120  93.7252 263.3528 15.74412837  5940
STARLINK-1039,44744,53.0573,0.0004085,15.29666827,474.0072454542851,479.6077351028425,1 44744U 19074AH  26175.04836965  .00032933  00000+0  11374-2 0  9993,2 44744  53.0573  83.1340 0004085  95.8302 264.3163 15.29666827364595
STARLINK-1042,44747,53.0415,0.0001553,15.54912605,401.35366931329463,403.45970618270985,1 44747U 19074AL  26175.06887535  .00022059  00000+0  33039-3 0  9998,2 44747  53.0415 302.3595 0001553 120.8654 239.2509 15.54912605366590
STARLINK-1043,44748,53.049,3.26e-05,15.63663481,376.86508594132283,377.30552643568626,1 44748U 19074AM  26174.61787439  .00032123  00000+0  34287-3 0  9990,2 44748  53.0490  39.9264 0000326 115.1741 244.9307 15.63663481365167
STARLINK-1046,44751,53.046,0.0006174,15.5694974,392.3082359681566,400.67354648824585,1 44751U 19074AQ  26174.98181550  .00065487  00000+0  89145-3 0  9998,2 44751  53.0460  60.5871 0006174 119.3588 240.8040 15.56949740364901
STARLINK-1047,44752,53.0693,0.0003079,15.34811887,459.37338117006675,463.58521688700785,1 44752U 19074AR  26175.23390641  .00007452  00000+0  22849-3 0  9997,2 44752  53.0693   7.3955 0003079 149.6348 210.4832 15.34811887365698
STARLINK-1048,44753,53.0451,0.0005389,15.68852069,358.5505808614553,365.81529769200733,1 44753U 19074AS  26174.27103039  .00047525  00000+0  40879-3 0  9992,2 44753  53.0451  12.8028 0005389 104.0570 256.1046 15.68852069365509
STARLINK-1063,44768,53.1541,0.0002279,15.50926293,412.4723725722133,415.5682378719339,1 44768U 19074BH  26175.22137870  .00077255  00000+0  13065-2 0  9993,2 44768  53.1541  76.0671 0002279 127.3950 232.7268 15.50926293364740
STARLINK-1067,44771,53.0434,0.0001802,15.79541212,330.53048576359924,332.94872529223085,1 44771U 19074BL  26174.92532457  .00097331  00000+0  52183-3 0  9995,2 44771  53.0434  40.1903 0001802 221.6712 138.4172 15.79541212365189
STARLINK-1068,44772,53.0405,0.0002298,15.777399,335.30265994506135,338.3888660229295,1 44772U 19074BM  26175.20368207  .00070231  00000+0  41065-3 0  9995,2 44772  53.0405  12.6828 0002298 238.1897 121.8899 15.77739900365582
STARLINK-1114,44927,53.0393,0.0001729,15.71167958,354.39360343971384,356.72211512205286,1 44927U 20001P   26175.33335648 -.00015996  00000+0 -11977-3 0  9994,2 44927  53.0393 170.2732 0001729  92.2389 327.4850 15.71167958  5975
STARLINK-1123,44930,53.1421,0.0008264,15.60513939,380.5814788263706,391.7615279207457,1 44930U 20001S   26175.24692411  .00059815  00000+0  71241-3 0  9998,2 44930  53.1421 198.7538 0008264   7.2448 352.8684 15.60513939356343
STARLINK-1094,44941,53.1509,0.0007856,15.56105687,393.61636497731615,404.2645090463484,1 44941U 20001AD  26175.24942925  .00054779  00000+0  77123-3 0  9997,2 44941  53.1509 174.2685 0007856  29.6616 330.4840 15.56105687356691
STARLINK-1122,44949,53.1528,0.0007422,15.56383871,393.1035206757779,403.16221566809145,1 44949U 20001AM  26175.19463463  .00054007  00000+0  75286-3 0  9996,2 44949  53.1528 175.1253 0007422  26.8261 333.3134 15.56383871356674
STARLINK-1080,44961,53.0442,0.0003101,15.69170939,359.17988820832034,363.3596682921916,1 44961U 20001AZ  26175.18501527  .00050593  00000+0  42923-3 0  9991,2 44961  53.0442 131.1763 0003101  78.0867 282.0497 15.69170939357273
STARLINK-1090,44968,53.1473,0.0005933,15.52381156,405.7487169203014,413.80325446912684,1 44968U 20001BG  26175.28659380  .00051124  00000+0  82564-3 0  9996,2 44968  53.1473 162.8569 0005933  35.6265 324.5140 15.52381156356853
STARLINK-1132,45044,53.1487,0.0003434,15.57915673,391.3649034463888,396.015794469653,1 45044U 20006A   26175.07768168  .00072045  00000+0  94513-3 0  9991,2 45044  53.1487 104.2781 0003434  85.7207 274.4198 15.57915673353435
STARLINK-1131,45047,53.1531,0.0005572,15.54356311,400.24537921325464,407.80341987690736,1 45047U 20006D   26175.19205622  .00061880  00000+0  92777-3 0  9993,2 45047  53.1531 136.9777 0005572  55.4681 304.6855 15.54356311352980
STARLINK-1134,45048,53.0218,0.0007479,15.61213128,379.0942406592403,389.2092721810932,1 45048U 20006E   26175.03857206  .00035658  00000+0  41722-3 0  9996,2 45048  53.0218  86.5333 0007479 129.4057 230.7618 15.61213128353654
STARLINK-1156,45054,53.1553,0.0004987,15.36296927,453.6622572707347,460.47969370548617,1 45054U 20006L   26175.20055622  .00035162  00000+0  98527-3 0  9999,2 45054  53.1553 144.6190 0004987  45.7573 314.3839 15.36296927352872
STARLINK-1166,45060,53.0425,0.0005329,15.62148461,377.8500314154526,385.0544016024078,1 45060U 20006S   26175.22821189  .00078690  00000+0  87685-3 0  9993,2 45060  53.0425 118.5767 0005329  69.7364 290.4221 15.62148461353228
STARLINK-1169,45061,53.1534,0.0006138,15.39793779,442.52951163422495,450.90770437861374,1 45061U 20006T   26175.19827745  .00055933  00000+0  13894-2 0  9999,2 45061  53.1534 142.8113 0006138  27.3378 332.7949 15.39793779352903
STARLINK-1171,45062,53.0382,0.0002428,15.76743086,338.0445129122345,341.30668270973274,1 45062U 20006U   26175.02482385  .00084809  00000+0  51657-3 0  9993,2 45062  53.0382  83.7087 0002428  70.2004 289.9277 15.76743086353699
STARLINK-1133,45064,53.1562,0.0005682,15.36313665,453.1375924487402,460.9050663742837,1 45064U 20006W   26175.17201274  .00042098  00000+0  11757-2 0  9997,2 45064  53.1562 121.5346 0005682  56.9469 303.2079 15.36313665353201
STARLINK-1167,45071,53.1554,0.0003768,15.3884182,446.960315277428,452.10564737535515,1 45071U 20006AD  26175.14789805  .00026447  00000+0  68596-3 0  9997,2 45071  53.1554 120.4204 0003768  34.6179 325.5071 15.38841820353216
STARLINK-1168,45072,53.1547,0.0004836,15.36643843,452.7371736097648,459.34719171523557,1 45072U 20006AE  26175.14920584  .00039768  00000+0  11000-2 0  9996,2 45072  53.1547 121.8104 0004836  55.5323 304.6137 15.36643843353194
STARLINK-1172,45074,53.1533,0.0004561,15.39903012,443.2831873924715,449.5085262644707,1 45074U 20006AG  26175.09493945  .00047528  00000+0  11795-2 0  9992,2 45074  53.1533 119.8862 0004561  39.7163 320.4175 15.39903012353211
STARLINK-1153,45080,53.1555,0.0005384,15.38947098,445.5457446947439,452.8974444293681,1 45080U 20006AN  26175.13022082  .00044440  00000+0  11389-2 0  9993,2 45080  53.1555 120.4106 0005384  22.1983 337.9254 15.38947098353213
STARLINK-1151,45081,53.0461,0.0002948,15.9172694,295.48208648315995,299.41801260757165,1 45081U 20006AP  26175.33335648  .00169631  21802-4  51606-3 0  9996,2 45081  53.0461  69.1288 0002948 225.9919  39.3933 15.91726940  5967
STARLINK-1185,45087,53.1564,0.0005229,15.47743696,419.7716900354517,426.88466231669736,1 45087U 20006AV  26175.11561185  .00056239  00000+0  10683-2 0  9995,2 45087  53.1564  99.5953 0005229  71.4720 288.6856 15.47743696353500
STARLINK-1183,45088,53.1563,0.00052,15.36192946,453.8249420569573,460.93387912397156,1 45088U 20006AW  26175.06689416  .00046684  00000+0  13070-2 0  9994,2 45088  53.1563 106.8467 0005200  72.7254 287.4318 15.36192946353398
STARLINK-1152,45096,53.0323,0.0003645,15.5080684,411.89321569544063,416.8449526307959,1 45096U 20006BE  26174.96572931  .00061505  00000+0  10480-2 0  9995,2 45096  53.0323  60.4088 0003645 141.7568 218.3699 15.50806840354016
STARLINK-1184,45098,53.0493,0.0005145,15.14999644,517.4300453106962,524.5292363341023,1 45098U 20006BG  26175.17071918  .00022854  00000+0  12217-2 0  9994,2 45098  53.0493 122.7037 0005145  82.5623 277.5954 15.14999644353153
STARLINK-1193,45100,53.0451,0.0003983,15.69508781,357.6187031905756,362.98654419480954,1 45100U 20006BJ  26175.01823637  .00050635  00000+0  42359-3 0  9993,2 45100  53.0451  69.7862 0003983  36.9495 323.1795 15.69508781353884
STARLINK-1143,45179,53.0304,0.0007919,15.95974307,280.3239477477282,290.87797593168943,1 45179U 20012B   26175.33335648  .00256607  37158-4  61707-3 0  9995,2 45179  53.0304 156.3758 0007919  47.1883 150.8896 15.95974307  6143
STARLINK-1202,45183,53.1531,0.000293,15.36075794,455.72404790579094,459.72986418403434,1 45183U 20012F   26174.94887109  .00032465  00000+0  91751-3 0  9997,2 45183  53.1531 264.1739 0002930 313.7076  46.3684 15.36075794351247
STARLINK-1216,45185,53.1545,0.0003089,15.36428144,454.5705253434908,458.79307639866965,1 45185U 20012H   26174.66425322  .00033875  00000+0  94597-3 0  9990,2 45185  53.1545 265.3271 0003089 311.9039  48.1700 15.36428144351142
STARLINK-1225,45187,53.1553,0.0003349,15.36440576,454.35596338451705,458.93390032247225,1 45187U 20012K   26174.53259562  .00034186  00000+0  95411-3 0  9991,2 45187  53.1553 266.4052 0003349 318.2832  41.7915 15.36440576351164
STARLINK-1230,45189,53.1535,0.0003161,15.36263978,455.0080670224952,459.3293472905598,1 45189U 20012M   26174.54532200  .00034105  00000+0  95731-3 0  9993,2 45189  53.1535 266.4332 0003161 317.2029  42.8728 15.36263978348390
